OBJECT_NAME,OBJECT_ID,EPOCH,MEAN_MOTION,ECCENTRICITY,INCLINATION,RA_OF_ASC_NODE,ARG_OF_PERICENTER,MEAN_ANOMALY,EPHEMERIS_TYPE,CLASSIFICATION_TYPE,NORAD_CAT_ID,ELEMENT_SET_NO,REV_AT_EPOCH,BSTAR,MEAN_MOTION_DOT,MEAN_MOTION_DDOT
STARLINK-35589,2025-259E,2026-07-21T11:41:02.042016,15.27615794,.00016394,43.0028,238.7497,253.4245,106.6427,0,U,66426,999,3995,.52557874E-3,.14244E-3,0
STARLINK-35611,2025-259F,2026-07-21T11:35:28.497408,15.27594803,.00013808,43.0022,238.7224,270.1360,89.9333,0,U,66427,999,3995,.44139296E-3,.11909E-3,0
STARLINK-35610,2025-259G,2026-07-21T03:39:08.631936,15.27587248,.00011996,43.0011,240.5376,272.4792,87.5923,0,U,66428,999,3990,.26430432E-3,.702E-4,0
STARLINK-35533,2025-259H,2026-07-21T11:24:22.426848,15.27599199,.00014812,42.9999,238.6613,276.9360,83.1323,0,U,66429,999,3995,.86199585E-3,.23548E-3,0
STARLINK-35470,2025-259J,2026-07-21T09:44:39.926688,15.27591794,.00010036,42.9985,238.9992,282.9296,77.1444,0,U,66430,999,3994,.31017459E-3,.8286E-4,0
STARLINK-35439,2025-259K,2026-07-21T09:40:57.991872,15.27577153,.00014205,42.9981,238.9805,270.7126,89.3563,0,U,66431,999,3994,.34463635E-3,.9233E-4,0
STARLINK-35446,2025-259L,2026-07-21T09:39:06.877152,15.27591896,.00011549,42.9997,238.9696,279.7012,80.3709,0,U,66432,999,3994,.46583478E-3,.12583E-3,0
STARLINK-35457,2025-259M,2026-07-21T11:09:35.094528,15.27604340,.00014011,42.9987,238.5808,276.8494,83.2198,0,U,66433,999,3995,.49027697E-3,.13264E-3,0
STARLINK-35389,2025-259N,2026-07-21T11:07:42.922272,15.27601808,.00014902,42.9981,238.5705,276.3910,83.6772,0,U,66434,999,3995,.61583539E-3,.16734E-3,0
STARLINK-35502,2025-259P,2026-07-21T10:58:27.853248,15.27597991,.00019237,42.9999,238.5217,278.8644,81.1990,0,U,66435,999,3995,.44298385E-3,.11954E-3,0
STARLINK-35501,2025-259Q,2026-07-21T11:05:53.893248,15.27601780,.00017201,42.9989,238.5588,287.6545,72.4119,0,U,66436,999,3995,.64406787E-3,.17515E-3,0
STARLINK-35474,2025-259R,2026-07-21T04:05:02.812416,15.27591788,.00015471,43.0007,240.6735,269.5793,90.4882,0,U,66437,999,3990,.50738463E-3,.13731E-3,0
STARLINK-34681,2025-259S,2026-07-21T11:46:34.453920,15.27601046,.0002252,43.0048,238.7804,293.2215,66.8399,0,U,66438,999,3984,.57988829E-3,.1574E-3,0
STARLINK-35327,2025-259T,2026-07-21T03:05:50.095392,15.27592583,.000172,42.9993,240.3550,278.6147,81.4509,0,U,66439,999,3990,.50945304E-3,.13789E-3,0
STARLINK-35405,2025-259U,2026-07-21T11:39:10.991232,15.27585898,.00009569,42.9991,238.7353,268.9904,91.0838,0,U,66440,999,3995,.32080547E-3,.8578E-4,0
STARLINK-35426,2025-259V,2026-07-21T11:28:04.384992,15.27590959,.00012658,43.0009,238.6762,275.6225,84.4482,0,U,66441,999,3995,.4626718E-3,.12495E-3,0
STARLINK-34724,2025-259W,2026-07-21T03:02:20.939136,15.27605494,.00004556,43.0005,241.2055,213.4531,146.6292,0,U,66442,999,3989,.34636177E-3,.9289E-4,0
STARLINK-35219,2025-259X,2026-07-21T04:30:57.157920,15.27573211,.00013988,42.9986,240.8022,264.0915,95.9777,0,U,66443,999,3979,.35792972E-3,.9598E-4,0
STARLINK-35360,2025-259Y,2026-07-22T01:09:34.065216,15.27601895,.00012273,43.0019,235.2134,276.5337,83.5375,0,U,66444,999,4004,.41946872E-3,.11306E-3,0
STARLINK-34698,2025-259Z,2026-07-21T02:51:14.664672,15.27587892,.00014455,42.9992,241.1429,264.6602,95.4085,0,U,66445,999,3978,.29337788E-3,.7822E-4,0
STARLINK-34986,2025-259AA,2026-07-21T12:06:55.822464,15.27593929,.00016675,43.0008,238.8816,280.1141,79.9522,0,U,66446,999,3995,.52926124E-3,.14337E-3,0
STARLINK-34851,2025-259AB,2026-07-21T03:00:29.889216,15.27586934,.00016696,42.9987,241.1891,271.9606,88.1054,0,U,66447,999,3978,.30122163E-3,.8038E-4,0
STARLINK-35355,2025-259AC,2026-07-21T04:27:15.113376,15.27594731,.00019047,42.9996,240.7815,277.1537,82.9098,0,U,66448,999,3990,.6564451E-3,.17854E-3,0
STARLINK-34720,2025-259AD,2026-07-21T12:10:37.867008,15.27606071,.00018019,42.9991,238.8999,281.4393,78.6256,0,U,66449,999,3984,.77165149E-3,.2105E-3,0
STARLINK-35334,2025-259AE,2026-07-21T12:05:04.445952,15.27606187,.00028034,43.0028,238.8720,290.2879,69.7672,0,U,66450,999,3995,.80973557E-3,.22106E-3,0
VIASAT-3 F2,2025-261A,2026-07-22T05:48:50.681664,1.00271981,.00007148,0.0235,262.5148,314.1369,91.5874,0,U,66454,999,314,0,-.23E-5,0
STARLINK-35643,2025-262A,2026-07-21T05:09:29.472480,15.27588536,.00047648,43.0067,262.4249,299.4361,60.6015,0,U,66456,999,3932,.40749063E-3,.10972E-3,0
STARLINK-35466,2025-262B,2026-07-21T11:13:09.441696,15.27600042,.00012212,42.9991,260.8702,277.9788,82.0925,0,U,66457,999,3936,.70452952E-3,.19187E-3,0
STARLINK-35684,2025-262C,2026-07-21T12:51:00.788256,15.27598933,.00015091,42.9986,260.5228,273.4024,86.6655,0,U,66458,999,3937,.55093031E-3,.14938E-3,0
STARLINK-35449,2025-262D,2026-07-21T12:38:03.330816,15.27583932,.00018156,42.9973,260.4529,268.2641,91.8003,0,U,66459,999,3937,.57841195E-3,.15691E-3,0
