STARLINK-35589          
1 66426U 25259E   26202.48682919  .00014244  00000+0  52558-3 0  9998
2 66426  43.0028 238.7497 0001639 253.4245 106.6427 15.27615794 39956
STARLINK-35611          
1 66427U 25259F   26202.48296872  .00011909  00000+0  44139-3 0  9999
2 66427  43.0022 238.7224 0001380 270.1360  89.9333 15.27594803 39952
STARLINK-35610          
1 66428U 25259G   26202.15218324  .00007020  00000+0  26430-3 0  9993
2 66428  43.0011 240.5376 0001199 272.4792  87.5923 15.27587248 39901
STARLINK-35533          
1 66429U 25259H   26202.47525957  .00023548  00000+0  86200-3 0  9996
2 66429  42.9999 238.6613 0001481 276.9360  83.1323 15.27599199 39950
STARLINK-35470          
1 66430U 25259J   26202.40601767  .00008286  00000+0  31017-3 0  9993
2 66430  42.9985 238.9992 0001003 282.9296  77.1444 15.27591794 39944
STARLINK-35439          
1 66431U 25259K   26202.40344898  .00009233  00000+0  34464-3 0  9995
2 66431  42.9981 238.9805 0001420 270.7126  89.3563 15.27577153 39944
STARLINK-35446          
1 66432U 25259L   26202.40216293  .00012583  00000+0  46583-3 0  9990
2 66432  42.9997 238.9696 0001154 279.7012  80.3709 15.27591896 39940
STARLINK-35457          
1 66433U 25259M   26202.46498952  .00013264  00000+0  49028-3 0  9995
2 66433  42.9987 238.5808 0001401 276.8494  83.2198 15.27604340 39952
STARLINK-35389          
1 66434U 25259N   26202.46369123  .00016734  00000+0  61584-3 0  9999
2 66434  42.9981 238.5705 0001490 276.3910  83.6772 15.27601808 39957
STARLINK-35502          
1 66435U 25259P   26202.45726682  .00011954  00000+0  44298-3 0  9998
2 66435  42.9999 238.5217 0001923 278.8644  81.1990 15.27597991 39959
STARLINK-35501          
1 66436U 25259Q   26202.46242932  .00017515  00000+0  64407-3 0  9994
2 66436  42.9989 238.5588 0001720 287.6545  72.4119 15.27601780 39951
STARLINK-35474          
1 66437U 25259R   26202.17017144  .00013731  00000+0  50738-3 0  9996
2 66437  43.0007 240.6735 0001547 269.5793  90.4882 15.27591788 39902
STARLINK-34681          
1 66438U 25259S   26202.49067655  .00015740  00000+0  57989-3 0  9991
2 66438  43.0048 238.7804 0002252 293.2215  66.8399 15.27601046 39842
STARLINK-35327          
1 66439U 25259T   26202.12905203  .00013789  00000+0  50945-3 0  9998
2 66439  42.9993 240.3550 0001720 278.6147  81.4509 15.27592583 39905
STARLINK-35405          
1 66440U 25259U   26202.48554388  .00008578  00000+0  32081-3 0  9994
2 66440  42.9991 238.7353 0000956 268.9904  91.0838 15.27585898 39958
STARLINK-35426          
1 66441U 25259V   26202.47782853  .00012495  00000+0  46267-3 0  9998
2 66441  43.0009 238.6762 0001265 275.6225  84.4482 15.27590959 39954
STARLINK-34724          
1 66442U 25259W   26202.12663124  .00009289  00000+0  34636-3 0  9994
2 66442  43.0005 241.2055 0000455 213.4531 146.6292 15.27605494 39890
STARLINK-35219          
1 66443U 25259X   26202.18816155  .00009598  00000+0  35793-3 0  9993
2 66443  42.9986 240.8022 0001398 264.0915  95.9777 15.27573211 39795
STARLINK-35360          
1 66444U 25259Y   26203.04831094  .00011306  00000+0  41947-3 0  9997
2 66444  43.0019 235.2134 0001227 276.5337  83.5375 15.27601895 40041
STARLINK-34698          
1 66445U 25259Z   26202.11891973  .00007822  00000+0  29338-3 0  9995
2 66445  42.9992 241.1429 0001445 264.6602  95.4085 15.27587892 39787
STARLINK-34986          
1 66446U 25259AA  26202.50481276  .00014337  00000+0  52926-3 0  9998
2 66446  43.0008 238.8816 0001667 280.1141  79.9522 15.27593929 39958
STARLINK-34851          
1 66447U 25259AB  26202.12534594  .00008038  00000+0  30122-3 0  9994
2 66447  42.9987 241.1891 0001669 271.9606  88.1054 15.27586934 39780
STARLINK-35355          
1 66448U 25259AC  26202.18559159  .00017854  00000+0  65645-3 0  9999
2 66448  42.9996 240.7815 0001904 277.1537  82.9098 15.27594731 39903
STARLINK-34720          
1 66449U 25259AD  26202.50738272  .00021050  00000+0  77165-3 0  9994
2 66449  42.9991 238.8999 0001801 281.4393  78.6256 15.27606071 39846
STARLINK-35334          
1 66450U 25259AE  26202.50352368  .00022106  00000+0  80974-3 0  9999
2 66450  43.0028 238.8720 0002803 290.2879  69.7672 15.27606187 39956
VIASAT-3 F2             
1 66454U 25261A   26203.24225326 -.00000230  00000+0  00000+0 0  9994
2 66454   0.0235 262.5148 0000714 314.1369  91.5874  1.00271981  3145
STARLINK-35643          
1 66456U 25262A   26202.21492445  .00010972  00000+0  40749-3 0  9992
2 66456  43.0067 262.4249 0004764 299.4361  60.6015 15.27588536 39328
STARLINK-35466          
1 66457U 25262B   26202.46747039  .00019187  00000+0  70453-3 0  9994
2 66457  42.9991 260.8702 0001221 277.9788  82.0925 15.27600042 39367
STARLINK-35684          
1 66458U 25262C   26202.53542579  .00014938  00000+0  55093-3 0  9997
2 66458  42.9986 260.5228 0001509 273.4024  86.6655 15.27598933 39371
STARLINK-35449          
1 66459U 25262D   26202.52642744  .00015691  00000+0  57841-3 0  9992
2 66459  42.9973 260.4529 0001815 268.2641  91.8003 15.27583932 39376
